NORAD_CAT_ID,OBJECT_NAME,OBJECT_TYPE,EPOCH,MEAN_MOTION,ECCENTRICITY,INCLINATION,RA_OF_ASC_NODE,ARG_OF_PERICENTER,MEAN_ANOMALY,BSTAR,MEAN_MOTION_DOT,MEAN_MOTION_DDOT,TLE_LINE0,TLE_LINE1,TLE_LINE2,SEMIMAJOR_AXIS,PERIOD,APOGEE,PERIGEE,DECAYED
52642.0,STARLINK-3971,PAYLOAD,2024-02-14 09:31:11,15.08855896,0.0001334,53.2166,45.2716,105.6886,254.4253,1.6387e-05,-2.7e-07,0.0,0 STARLINK-3971,1 52642U 22052AW  24045.39666236 -.00000027  00000-0  16387-4 0  9995,2 52642  53.2166  45.2716 0001334 105.6886 254.4253 15.08855896 97257,6917.832,95.437,540.62,538.774,0.0
52642.0,STARLINK-3971,PAYLOAD,2024-02-14 17:28:07,15.08847068,0.0001347,53.2157,43.784,115.0103,245.1029,-3.2632e-05,-8.07e-06,0.0,0 STARLINK-3971,1 52642U 22052AW  24045.72786688 -.00000807  00000-0 -32632-4 0  9994,2 52642  53.2157  43.7840 0001347 115.0103 245.1029 15.08847068 97305,6917.859,95.437,540.656,538.792,0.0
52642.0,STARLINK-3971,PAYLOAD,2024-02-15 03:00:27,15.08836067,0.0001647,53.2172,41.9983,117.9572,242.1587,6.9378e-05,8.16e-06,0.0,0 STARLINK-3971,1 52642U 22052AW  24046.12531473  .00000816  00000-0  69378-4 0  9994,2 52642  53.2172  41.9983 0001647 117.9572 242.1587 15.08836067 97745,6917.892,95.438,540.897,538.618,0.0
52642.0,STARLINK-3971,PAYLOAD,2024-02-15 06:11:13,15.08832559,0.0001472,53.2195,41.4078,97.4315,262.6845,7.0852e-05,8.4e-06,0.0,0 STARLINK-3971,1 52642U 22052AW  24046.25779846  .00000840  00000-0  70852-4 0  9992,2 52642  53.2195  41.4078 0001472  97.4315 262.6845 15.08832559 97389,6917.903,95.438,540.786,538.75,0.0
52642.0,STARLINK-3971,PAYLOAD,2024-02-16 04:26:37,15.0884349,0.000147,53.2189,37.2442,92.4081,267.708,7.7373e-05,9.44e-06,0.0,0 STARLINK-3971,1 52642U 22052AW  24047.18515365  .00000944  00000-0  77373-4 0  9999,2 52642  53.2189  37.2442 0001470  92.4081 267.7080 15.08843490 97904,6917.87,95.437,540.752,538.718,0.0
52642.0,STARLINK-3971,PAYLOAD,2024-02-16 06:02:00,15.08851812,0.0001533,53.2192,36.9458,99.4099,260.7066,3.4296e-05,2.58e-06,0.0,0 STARLINK-3971,1 52642U 22052AW  24047.25138948  .00000258  00000-0  34296-4 0  9990,2 52642  53.2192  36.9458 0001533  99.4099 260.7066 15.08851812 97530,6917.844,95.437,540.77,538.649,0.0
52642.0,STARLINK-3971,PAYLOAD,2024-02-17 02:42:01,15.08830877,0.0001514,53.2186,33.0803,92.6135,267.5031,0.00014232,1.977e-05,0.0,0 STARLINK-3971,1 52642U 22052AW  24048.11252107  .00001977  00000-0  14232-3 0  9996,2 52642  53.2186  33.0803 0001514  92.6135 267.5031 15.08830877 98042,6917.908,95.438,540.821,538.726,0.0
52642.0,STARLINK-3971,PAYLOAD,2024-02-17 05:52:47,15.08834912,0.0001447,53.2197,32.4896,86.0996,274.0161,0.00014258,1.982e-05,0.0,0 STARLINK-3971,1 52642U 22052AW  24048.24499953  .00001982  00000-0  14258-3 0  9996,2 52642  53.2197  32.4896 0001447  86.0996 274.0161 15.08834912 97686,6917.896,95.438,540.762,538.76,0.0
52642.0,STARLINK-3971,PAYLOAD,2024-02-17 15:25:07,15.08831825,0.0001381,53.2185,30.705,87.5614,272.5536,2.3336e-05,8.3e-07,0.0,0 STARLINK-3971,1 52642U 22052AW  24048.64244549  .00000083  00000-0  23336-4 0  9998,2 52642  53.2185  30.7050 0001381  87.5614 272.5536 15.08831825 97742,6917.905,95.438,540.726,538.815,0.0
52642.0,STARLINK-3971,PAYLOAD,2024-02-18 04:08:12,15.08838651,0.0001392,53.218,28.3249,91.971,268.1442,2.8712e-05,1.69e-06,0.0,0 STARLINK-3971,1 52642U 22052AW  24049.17236227  .00000169  00000-0  28712-4 0  9999,2 52642  53.2180  28.3249 0001392  91.9710 268.1442 15.08838651 98201,6917.885,95.438,540.712,538.787,0.0
52642.0,STARLINK-3971,PAYLOAD,2024-02-18 05:43:35,15.08840437,0.000148,53.2183,28.0277,101.1006,259.0153,4.6819e-05,4.57e-06,0.0,0 STARLINK-3971,1 52642U 22052AW  24049.23860072  .00000457  00000-0  46819-4 0  9995,2 52642  53.2183  28.0277 0001480 101.1006 259.0153 15.08840437 97833,6917.879,95.438,540.768,538.72,0.0
52642.0,STARLINK-3971,PAYLOAD,2024-02-18 15:15:53,15.08845636,0.0001412,53.2184,26.2435,92.5663,267.5491,8.6801e-07,-2.74e-06,0.0,0 STARLINK-3971,1 52642U 22052AW  24049.63603824 -.00000274  00000-0  86801-6 0  9994,2 52642  53.2184  26.2435 0001412  92.5663 267.5491 15.08845636 97898,6917.863,95.437,540.705,538.751,0.0
52642.0,STARLINK-3971,PAYLOAD,2024-02-19 05:34:21,15.0884692,0.00017,53.2191,23.567,95.1151,265.0035,9.1395e-05,1.167e-05,0.0,0 STARLINK-3971,1 52642U 22052AW  24050.23219700  .00001167  00000-0  91395-4 0  9991,2 52642  53.2191  23.5670 0001700  95.1151 265.0035 15.08846920 98365,6917.859,95.437,540.9,538.548,0.0
52642.0,STARLINK-3971,PAYLOAD,2024-02-19 15:06:40,15.08840583,0.0001761,53.2192,21.7818,81.2921,278.827,0.000188,2.705e-05,0.0,0 STARLINK-3971,1 52642U 22052AW  24050.62963930  .00002705  00000-0  18800-3 0  9993,2 52642  53.2192  21.7818 0001761  81.2921 278.8270 15.08840583 98045,6917.879,95.438,540.962,538.525,0.0
52642.0,STARLINK-3971,PAYLOAD,2024-02-20 03:49:47,15.08831066,0.0001827,53.2208,19.405,82.8584,277.2615,-1.7876e-05,-5.73e-06,0.0,0 STARLINK-3971,1 52642U 22052AW  24051.15957231 -.00000573  00000-0 -17876-4 0  9995,2 52642  53.2208  19.4050 0001827  82.8584 277.2615 15.08831066 98503,6917.908,95.438,541.037,538.509,0.0
52642.0,STARLINK-3971,PAYLOAD,2024-02-20 05:25:09,15.08833904,0.0001635,53.2194,19.1072,83.9299,276.1879,1.0293e-05,-1.24e-06,0.0,0 STARLINK-3971,1 52642U 22052AW  24051.22580944 -.00000124  00000-0  10293-4 0  9993,2 52642  53.2194  19.1072 0001635  83.9299 276.1879 15.08833904 98132,6917.899,95.438,540.895,538.633,0.0
52642.0,STARLINK-3971,PAYLOAD,2024-02-20 14:57:28,15.08839698,0.0001675,53.22,17.3243,85.5953,274.5231,5.8826e-05,6.48e-06,0.0,0 STARLINK-3971,1 52642U 22052AW  24051.62324552  .00000648  00000-0  58826-4 0  9992,2 52642  53.2200  17.3243 0001675  85.5953 274.5231 15.08839698 98577,6917.881,95.438,540.905,538.588,0.0
52642.0,STARLINK-3971,PAYLOAD,2024-02-20 21:19:00,15.08839994,0.0001549,53.2195,16.135,85.5664,274.5505,5.1264e-05,5.28e-06,0.0,0 STARLINK-3971,1 52642U 22052AW  24051.88820523  .00000528  00000-0  51264-4 0  9995,2 52642  53.2195  16.1350 0001549  85.5664 274.5505 15.08839994 98231,6917.88,95.438,540.817,538.674,0.0
52642.0,STARLINK-3971,PAYLOAD,2024-02-21 03:40:32,15.08850302,0.0001589,53.2186,14.9462,81.1659,278.9513,5.7957e-05,6.35e-06,0.0,0 STARLINK-3971,1 52642U 22052AW  24052.15315887  .00000635  00000-0  57957-4 0  9992,2 52642  53.2186  14.9462 0001589  81.1659 278.9513 15.08850302 98650,6917.849,95.437,540.813,538.615,0.0
52642.0,STARLINK-3971,PAYLOAD,2024-02-21 14:48:14,15.08849375,0.0001404,53.2173,12.864,86.173,273.9423,4.1762e-05,3.77e-06,0.0,0 STARLINK-3971,1 52642U 22052AW  24052.61683682  .00000377  00000-0  41762-4 0  9994,2 52642  53.2173  12.8640 0001404  86.1730 273.9423 15.08849375 98341,6917.852,95.437,540.688,538.745,0.0
52642.0,STARLINK-3971,PAYLOAD,2024-02-22 03:31:20,15.08836539,0.0001593,53.2181,10.4843,82.4455,277.6718,0.00013603,1.877e-05,0.0,0 STARLINK-3971,1 52642U 22052AW  24053.14676345  .00001877  00000-0  13603-3 0  9999,2 52642  53.2181  10.4843 0001593  82.4455 277.6718 15.08836539 98808,6917.891,95.438,540.858,538.654,0.0
52642.0,STARLINK-3971,PAYLOAD,2024-02-22 14:39:02,15.08834639,0.0001437,53.2204,8.3975,102.6862,257.429,3.2498e-05,2.29e-06,0.0,0 STARLINK-3971,1 52642U 22052AW  24053.61044698  .00000229  00000-0  32498-4 0  9995,2 52642  53.2204   8.3975 0001437 102.6862 257.4290 15.08834639 98495,6917.897,95.438,540.756,538.768,0.0
52642.0,STARLINK-3971,PAYLOAD,2024-02-23 03:22:06,15.08850326,0.0001575,53.2199,6.0184,122.2865,237.828,-3.5074e-05,-8.46e-06,0.0,0 STARLINK-3971,1 52642U 22052AW  24054.14035772 -.00000846  00000-0 -35074-4 0  9997,2 52642  53.2199   6.0184 0001575 122.2865 237.8280 15.08850326 98952,6917.849,95.437,540.803,538.624,0.0
52642.0,STARLINK-3971,PAYLOAD,2024-02-23 06:32:53,15.08842408,0.0001463,53.2199,5.4233,123.1693,236.944,0.0001034,1.358e-05,0.0,0 STARLINK-3971,1 52642U 22052AW  24054.27283902  .00001358  00000-0  10340-3 0  9996,2 52642  53.2199   5.4233 0001463 123.1693 236.9440 15.08842408 98595,6917.873,95.437,540.75,538.726,0.0
52642.0,STARLINK-3971,PAYLOAD,2024-02-23 20:51:21,15.08838478,0.000145,53.22,2.7473,104.8297,255.2855,-1.9053e-06,-3.18e-06,0.0,0 STARLINK-3971,1 52642U 22052AW  24054.86900444 -.00000318  00000-0 -19053-5 0  9997,2 52642  53.2200   2.7473 0001450 104.8297 255.2855 15.08838478 99065,6917.885,95.438,540.753,538.747,0.0
52642.0,STARLINK-3971,PAYLOAD,2024-02-24 12:45:13,15.08823551,0.0001387,53.2193,359.7759,94.987,265.128,0.00034524,5.208e-05,0.0,0 STARLINK-3971,1 52642U 22052AW  24055.53140867  .00005208  00000-0  34524-3 0  9996,2 52642  53.2193 359.7759 0001387  94.9870 265.1280 15.08823551 98789,6917.931,95.439,540.755,538.836,0.0
52642.0,STARLINK-3971,PAYLOAD,2024-02-25 06:14:27,15.08841462,0.0001462,53.2197,356.5051,115.3682,244.7462,-1.2859e-05,-4.93e-06,0.0,0 STARLINK-3971,1 52642U 22052AW  24056.26004481 -.00000493  00000-0 -12859-4 0  9999,2 52642  53.2197 356.5051 0001462 115.3682 244.7462 15.08841462 99277,6917.876,95.437,540.752,538.73,0.0
52642.0,STARLINK-3971,PAYLOAD,2024-02-25 12:36:00,15.08843663,0.0001333,53.2198,355.3166,98.8614,261.2529,8.8337e-06,-1.47e-06,0.0,0 STARLINK-3971,1 52642U 22052AW  24056.52500325 -.00000147  00000-0  88337-5 0  9996,2 52642  53.2198 355.3166 0001333  98.8614 261.2529 15.08843663 98934,6917.869,95.437,540.656,538.812,0.0
52642.0,STARLINK-3971,PAYLOAD,2024-02-26 02:54:28,15.08845007,0.0001237,53.2175,352.6423,101.3552,258.7579,0.00011245,1.502e-05,0.0,0 STARLINK-3971,1 52642U 22052AW  24057.12116024  .00001502  00000-0  11245-3 0  9999,2 52642  53.2175 352.6423 0001237 101.3552 258.7579 15.08845007 99020,6917.865,95.437,540.586,538.874,0.0
52642.0,STARLINK-3971,PAYLOAD,2024-02-26 18:48:20,15.08834138,8.83e-05,53.2162,349.669,103.7205,256.3885,3.7353e-05,3.07e-06,0.0,0 STARLINK-3971,1 52642U 22052AW  24057.78356940  .00000307  00000-0  37353-4 0  9995,2 52642  53.2162 349.6690 0000883 103.7205 256.3885 15.08834138 99505,6917.898,95.438,540.374,539.152,0.0
